     2              NAVIGATION DATA                         RINEX VERSION / TYPE
CCRINEXN V1.6.0 UX  CDDIS               22-JUL-21 05:18     PGM / RUN BY / DATE 
IGS BROADCAST EPHEMERIS FILE                                COMMENT             
    0.4657D-08  0.1490D-07 -0.5960D-07 -0.5960D-07          ION ALPHA           
    0.7987D+05  0.6554D+05 -0.6554D+05 -0.3932D+06          ION BETA            
    0.931322574615D-09-0.177635683940D-14   589824     2167 DELTA-UTC: A0,A1,T,W
    18                                                      LEAP SECONDS        
                                                            END OF HEADER       
18 21  7 22  0  0  0.0 0.339263118803D-03-0.284217094304D-11 0.000000000000D+00
    0.172000000000D+03-0.131093750000D+03 0.434018078595D-08 0.203562805151D+00
   -0.675022602081D-05 0.170508795418D-02 0.197440385818D-05 0.515365882111D+04
    0.345600000000D+06 0.596046447754D-07 0.185497574746D+01 0.447034835815D-07
    0.968469526837D+00 0.345375000000D+03 0.288471019295D+01-0.830677458193D-08
   -0.152149194767D-09 0.100000000000D+01 0.216700000000D+04 0.000000000000D+00
    0.200000000000D+01 0.000000000000D+00-0.838190317154D-08 0.684000000000D+03
    0.338418000000D+06 0.400000000000D+01 0.000000000000D+00 0.000000000000D+00
19 21  7 22  0  0  0.0 0.293878838420D-04 0.500222085975D-11 0.000000000000D+00
    0.100000000000D+03 0.870000000000D+02 0.406445501515D-08-0.176538456548D+01
    0.492297112942D-05 0.929999817163D-02 0.979751348495D-06 0.515364452934D+04
    0.345600000000D+06-0.223517417908D-07 0.891713035724D+00 0.124797224999D-06
    0.980293162837D+00 0.371406250000D+03 0.189482007246D+01-0.819355558019D-08
    0.300012496725D-09 0.100000000000D+01 0.216700000000D+04 0.000000000000D+00
    0.280000000000D+01 0.000000000000D+00-0.153668224812D-07 0.100000000000D+03
    0.341562000000D+06 0.400000000000D+01 0.000000000000D+00 0.000000000000D+00
20 21  7 22  0  0  0.0 0.520058441907D-03-0.227373675443D-12 0.000000000000D+00
    0.120000000000D+02-0.120062500000D+03 0.474912639161D-08 0.100829926801D+01
   -0.627897679806D-05 0.551512162201D-02 0.111460685730D-04 0.515362903404D+04
    0.345600000000D+06 0.428408384323D-07 0.273349044307D+01 0.949949026108D-07
    0.939330406242D+00 0.156406250000D+03 0.296932697362D+01-0.800426198107D-08
    0.287869133762D-09 0.100000000000D+01 0.216700000000D+04 0.000000000000D+00
    0.200000000000D+01 0.000000000000D+00-0.838190317154D-08 0.120000000000D+02
    0.338418000000D+06 0.400000000000D+01 0.000000000000D+00 0.000000000000D+00
21 21  7 22  0  0  0.0 0.132675748318D-03 0.227373675443D-11 0.000000000000D+00
    0.370000000000D+02-0.995000000000D+02 0.452661712320D-08 0.221485575423D+01
   -0.526569783688D-05 0.240170060424D-01 0.936910510063D-06 0.515366884804D+04
    0.345600000000D+06 0.325962901115D-06 0.175877292477D+01 0.298023223877D-07
    0.957482248419D+00 0.358562500000D+03-0.111051080727D+01-0.802926302246D-08
   -0.298583865788D-09 0.100000000000D+01 0.216700000000D+04 0.000000000000D+00
    0.200000000000D+01 0.000000000000D+00-0.102445483208D-07 0.370000000000D+02
    0.343519000000D+06 0.400000000000D+01 0.000000000000D+00 0.000000000000D+00
22 21  7 22  0  0  0.0-0.557720195502D-03 0.954969436862D-11 0.000000000000D+00
    0.510000000000D+02-0.103312500000D+03 0.487234580990D-08 0.101908155796D+01
   -0.536628067493D-05 0.689556938596D-02 0.100824981928D-04 0.515378906059D+04
    0.345600000000D+06 0.126659870148D-06 0.277976636013D+01-0.182539224625D-06
    0.936033037167D+00 0.176312500000D+03-0.920134221958D+00-0.810926635492D-08
    0.332156692802D-09 0.100000000000D+01 0.216700000000D+04 0.000000000000D+00
    0.200000000000D+01 0.000000000000D+00-0.176951289177D-07 0.510000000000D+02
    0.340326000000D+06 0.400000000000D+01 0.000000000000D+00 0.000000000000D+00
23 21  7 22  0  0  0.0 0.813896767795D-04-0.522959453519D-11 0.000000000000D+00
    0.186000000000D+03-0.108593750000D+03 0.414588697855D-08-0.546896697883D+00
   -0.560842454433D-05 0.143137702253D-02 0.113565474749D-04 0.515366781235D+04
    0.345600000000D+06 0.130385160446D-07 0.285453559407D+01 0.540167093277D-07
    0.965283279557D+00 0.162531250000D+03 0.263506454373D+01-0.770353516887D-08
    0.398945189097D-09 0.100000000000D+01 0.216700000000D+04 0.000000000000D+00
    0.200000000000D+01 0.000000000000D+00-0.838190317154D-08 0.954000000000D+03
    0.338418000000D+06 0.400000000000D+01 0.000000000000D+00 0.000000000000D+00
24 21  7 22  0  0  0.0 0.182749703527D-03 0.135287336889D-10 0.000000000000D+00
    0.220000000000D+02-0.853125000000D+01 0.561166231969D-08 0.219798066649D+00
   -0.335276126862D-06 0.112632017117D-01 0.633858144283D-05 0.515371127701D+04
    0.345600000000D+06 0.130385160446D-07-0.137952654369D+01 0.124797224999D-06
    0.934437186648D+00 0.239906250000D+03 0.744588657712D+00-0.857428572484D-08
   -0.679671168175D-09 0.100000000000D+01 0.216700000000D+04 0.000000000000D+00
    0.200000000000D+01 0.000000000000D+00 0.279396772385D-08 0.220000000000D+02
    0.338418000000D+06 0.400000000000D+01 0.000000000000D+00 0.000000000000D+00
25 21  7 22  0  0  0.0 0.177619513124D-03 0.670752342558D-11 0.000000000000D+00
    0.850000000000D+02 0.122218750000D+03 0.405159733672D-08-0.171096550218D+01
    0.625476241112D-05 0.982386304531D-02 0.115763396025D-04 0.515360565567D+04
    0.345600000000D+06 0.219792127609D-06-0.263493378665D+00-0.931322574615D-07
    0.960572269336D+00 0.157625000000D+03 0.969910394353D+00-0.757745848870D-08
   -0.377158567311D-09 0.100000000000D+01 0.216700000000D+04 0.000000000000D+00
    0.200000000000D+01 0.000000000000D+00 0.558793544769D-08 0.850000000000D+02
    0.339792000000D+06 0.400000000000D+01 0.000000000000D+00 0.000000000000D+00
26 21  7 22  0  0  0.0 0.113398768008D-03 0.454747350886D-11 0.000000000000D+00
    0.610000000000D+02 0.932187500000D+02 0.451590239118D-08-0.238266387892D+01
    0.486522912979D-05 0.594617915340D-02 0.112429261208D-04 0.515360017967D+04
    0.345600000000D+06-0.204890966415D-07-0.306559767571D+00 0.745058059692D-08
    0.941447313071D+00 0.152375000000D+03 0.297797448573D+00-0.785139847083D-08
   -0.311798701953D-09 0.100000000000D+01 0.216700000000D+04 0.000000000000D+00
    0.200000000000D+01 0.000000000000D+00 0.698491930962D-08 0.610000000000D+02
    0.338485000000D+06 0.400000000000D+01 0.000000000000D+00 0.000000000000D+00
27 21  7 22  0  0  0.0-0.166506506503D-03-0.579802872380D-11 0.000000000000D+00
    0.880000000000D+02 0.113562500000D+03 0.419196032626D-08 0.202914097828D+01
    0.573880970478D-05 0.944396783598D-02 0.228174030781D-05 0.515368855858D+04
    0.345600000000D+06-0.206753611565D-06 0.785529483702D+00 0.204890966415D-07
    0.975536437888D+00 0.342156250000D+03 0.637220829617D+00-0.819069831832D-08
    0.238581366443D-09 0.100000000000D+01 0.216700000000D+04 0.000000000000D+00
    0.200000000000D+01 0.000000000000D+00 0.186264514923D-08 0.880000000000D+02
    0.338486000000D+06 0.400000000000D+01 0.000000000000D+00 0.000000000000D+00
29 21  7 22  0  0  0.0-0.383963808417D-03-0.613908923697D-11 0.000000000000D+00
    0.118000000000D+03 0.104156250000D+03 0.399945230753D-08 0.215596607765D+01
    0.545755028725D-05 0.198134186212D-02 0.114738941193D-05 0.515360869217D+04
    0.345600000000D+06-0.651925802231D-07 0.859190406512D+00 0.465661287308D-07
    0.983630285247D+00 0.368718750000D+03 0.223892980770D+01-0.814176770873D-08
    0.265725354242D-09 0.100000000000D+01 0.216700000000D+04 0.000000000000D+00
    0.280000000000D+01 0.000000000000D+00-0.102445483208D-07 0.118000000000D+03
    0.338418000000D+06 0.400000000000D+01 0.000000000000D+00 0.000000000000D+00
30 21  7 22  0  0  0.0-0.453479122370D-03-0.432009983342D-11 0.000000000000D+00
    0.620000000000D+02-0.937500000000D+01 0.529522056719D-08-0.900112011221D+00
   -0.629574060440D-06 0.535108288750D-02 0.728853046894D-05 0.515366706085D+04
    0.345600000000D+06 0.135973095894D-06-0.128394846163D+01 0.242143869400D-07
    0.936258613284D+00 0.225656250000D+03-0.273999208403D+01-0.824605776712D-08
   -0.646812656629D-09 0.100000000000D+01 0.216700000000D+04 0.000000000000D+00
    0.200000000000D+01 0.000000000000D+00 0.372529029846D-08 0.620000000000D+02
    0.338418000000D+06 0.400000000000D+01 0.000000000000D+00 0.000000000000D+00
31 21  7 22  0  0  0.0-0.129948835820D-03-0.216004991671D-11 0.000000000000D+00
    0.640000000000D+02-0.158750000000D+02 0.492663378550D-08-0.125933757134D+01
   -0.841915607452D-06 0.100593016250D-01 0.714510679245D-05 0.515356431007D+04
    0.345600000000D+06 0.875443220139D-07-0.128299917994D+01-0.165775418282D-06
    0.955353998123D+00 0.239000000000D+03 0.271797924263D+00-0.804033491222D-08
   -0.580024160334D-09 0.100000000000D+01 0.216700000000D+04 0.000000000000D+00
    0.200000000000D+01 0.000000000000D+00-0.130385160446D-07 0.640000000000D+02
    0.343098000000D+06 0.400000000000D+01 0.000000000000D+00 0.000000000000D+00
32 21  7 22  0  0  0.0 0.127530656755D-04-0.216004991671D-11 0.000000000000D+00
    0.102000000000D+03 0.141250000000D+02 0.491877631535D-08 0.279002264472D+01
    0.700354576111D-06 0.504875706974D-02 0.716187059879D-05 0.515368734550D+04
    0.345600000000D+06-0.391155481338D-07-0.236272411825D+01-0.106170773506D-06
    0.957383375638D+00 0.238593750000D+03-0.236202260953D+01-0.791890128260D-08
    0.471805366873D-09 0.100000000000D+01 0.216700000000D+04 0.000000000000D+00
    0.280000000000D+01 0.000000000000D+00 0.465661287308D-09 0.102000000000D+03
    0.338778000000D+06 0.400000000000D+01 0.000000000000D+00 0.000000000000D+00
